NORAD_CAT_ID,OBJECT_NAME,OBJECT_TYPE,EPOCH,MEAN_MOTION,ECCENTRICITY,INCLINATION,RA_OF_ASC_NODE,ARG_OF_PERICENTER,MEAN_ANOMALY,BSTAR,MEAN_MOTION_DOT,MEAN_MOTION_DDOT,TLE_LINE0,TLE_LINE1,TLE_LINE2,SEMIMAJOR_AXIS,PERIOD,APOGEE,PERIGEE,DECAYED
52107.0,STARLINK-3658,PAYLOAD,2022-07-26 22:00:00,15.08853472,0.0002205,53.2145,252.7813,38.9349,204.1532,-0.0002618,-4.454e-05,0.0,0 STARLINK-3658,1 52107U 22029V   22207.91667824 -.00004454  00000-0 -26180-3 0  9995,2 52107  53.2145 252.7813 0002205  38.9349 204.1532 15.08853472 21238,6917.839,95.437,541.23,538.179,0.0
52107.0,STARLINK-3658,PAYLOAD,2022-07-27 14:00:01,15.08813204,0.0002379999999999,53.2142,249.7902,34.9646,231.3352,0.0026418,0.00041977,0.0,0 STARLINK-3658,1 52107U 22029V   22208.58334491  .00041977  00000-0  26418-2 0  9992,2 52107  53.2142 249.7902 0002380  34.9646 231.3352 15.08813204  1307,6917.962,95.439,541.474,538.181,0.0
52107.0,STARLINK-3658,PAYLOAD,2022-07-27 22:00:00,15.08821106,0.0002185,53.2143,248.292,38.266,239.6247,0.0016869,0.00026648,0.0,0 STARLINK-3658,1 52107U 22029V   22208.91667824  .00026648  00000-0  16869-2 0  9995,2 52107  53.2143 248.2920 0002185  38.2660 239.6247 15.08821106  1302,6917.938,95.439,541.315,538.2919999999998,0.0
52107.0,STARLINK-3658,PAYLOAD,2022-07-28 06:00:00,15.08854346,0.0002238,53.2143,246.7962,39.1847,250.2849,-0.0016843,-0.00027005,0.0,0 STARLINK-3658,1 52107U 22029V   22209.25001157 -.00027005  00000-0 -16843-2 0  9996,2 52107  53.2143 246.7962 0002238  39.1847 250.2849 15.08854346 21432,6917.837,95.437,541.25,538.153,0.0
52107.0,STARLINK-3658,PAYLOAD,2022-07-28 14:00:01,15.08824488,0.000239,53.2139,245.3008,35.7738,265.2996,0.002113,0.00033487,0.0,0 STARLINK-3658,1 52107U 22029V   22209.58334491  .00033487  00000-0  21130-2 0  9996,2 52107  53.2139 245.3008 0002390  35.7738 265.2996 15.08824488  1300,6917.928000000001,95.439,541.446,538.139,0.0
52107.0,STARLINK-3658,PAYLOAD,2022-07-28 22:00:00,15.08821923,0.0002185,53.2139,243.8026,39.8398,272.8332,0.0020873,0.00033072,0.0,0 STARLINK-3658,1 52107U 22029V   22209.91667824  .00033072  00000-0  20873-2 0  9995,2 52107  53.2139 243.8026 0002185  39.8398 272.8332 15.08821923 21538,6917.936,95.439,541.312,538.289,0.0
52107.0,STARLINK-3658,PAYLOAD,2022-07-29 14:00:01,15.08833624,0.0002392,53.2133,240.8114,36.877,298.9903,0.0015567,0.0002457,0.0,0 STARLINK-3658,1 52107U 22029V   22210.58334491  .00024570  00000-0  15567-2 0  9998,2 52107  53.2133 240.8114 0002392  36.8770 298.9903 15.08833624  1305,6917.9,95.438,541.42,538.11,0.0
52107.0,STARLINK-3658,PAYLOAD,2022-07-29 22:00:00,15.08822893,0.0002193,53.2138,239.3132,41.6028,305.8711,0.0024308,0.00038593,0.0,0 STARLINK-3658,1 52107U 22029V   22210.91667824  .00038593  00000-0  24308-2 0  9997,2 52107  53.2138 239.3132 0002193  41.6028 305.8711 15.08822893  1303,6917.933000000001,95.439,541.315,538.281,0.0
52107.0,STARLINK-3658,PAYLOAD,2022-07-30 06:00:00,15.08861775,0.0002305,53.2142,237.8177,41.39100000000001,317.6704,-0.0020718,-0.00033131,0.0,0 STARLINK-3658,1 52107U 22029V   22211.25001157 -.00033131  00000-0 -20718-2 0  9992,2 52107  53.2142 237.8177 0002305  41.3910 317.6704 15.08861775 21736,6917.814,95.436,541.273,538.0840000000002,0.0
52107.0,STARLINK-3658,PAYLOAD,2022-07-30 14:00:01,15.08843527,0.0002399,53.2137,236.3218,37.654,333.0139,0.00024284,3.579e-05,0.0,0 STARLINK-3658,1 52107U 22029V   22211.58334491  .00003579  00000-0  24284-3 0  9992,2 52107  53.2137 236.3218 0002399  37.6540 333.0139 15.08843527  1300,6917.87,95.437,541.394,538.075,0.0
52107.0,STARLINK-3658,PAYLOAD,2022-07-30 22:00:00,15.0881062,0.0002173,53.2137,234.8236,41.5545,340.7242,0.000977,0.00015283,0.0,0 STARLINK-3658,1 52107U 22029V   22211.91667824  .00015283  00000-0  97700-3 0  9996,2 52107  53.2137 234.8236 0002173  41.5545 340.7242 15.08810620  1300,6917.97,95.439,541.3380000000002,538.332,0.0
52107.0,STARLINK-3658,PAYLOAD,2022-07-31 06:00:02,15.08833152,0.0002308,53.2138,233.3284,40.3387,353.5673,-0.0021033,-0.00033602,0.0,0 STARLINK-3658,1 52107U 22029V   22212.25002315 -.00033602  00000-0 -21033-2 0  9994,2 52107  53.2138 233.3284 0002308  40.3387 353.5673 15.08833152 21890,6917.901,95.438,541.363,538.17,0.0
52107.0,STARLINK-3658,PAYLOAD,2022-07-31 14:00:01,15.08815119,0.0002417,53.2135,231.8324,37.2016,8.2143,0.00063413,9.812e-05,0.0,0 STARLINK-3658,1 52107U 22029V   22212.58334491  .00009812  00000-0  63413-3 0  9996,2 52107  53.2135 231.8324 0002417  37.2016   8.2143 15.08815119  1303,6917.956,95.439,541.494,538.149,0.0
52107.0,STARLINK-3658,PAYLOAD,2022-07-31 22:00:00,15.08796394,0.0002244,53.2136,230.3342,41.8082,15.1865,0.0026812,0.00042591,0.0,0 STARLINK-3658,1 52107U 22029V   22212.91667824  .00042591  00000-0  26812-2 0  9994,2 52107  53.2136 230.3342 0002244  41.8082  15.1865 15.08796394 21998,6918.014,95.44,541.431,538.326,0.0
52107.0,STARLINK-3658,PAYLOAD,2022-08-01 14:00:01,15.08822205,0.0002523,53.2138,227.3428,38.425,41.7034,0.00029879,4.468e-05,0.0,0 STARLINK-3658,1 52107U 22029V   22213.58334491  .00004468  00000-0  29879-3 0  9997,2 52107  53.2138 227.3428 0002523  38.4250  41.7034 15.08822205  1307,6917.935,95.439,541.545,538.054,0.0
52107.0,STARLINK-3658,PAYLOAD,2022-08-01 22:00:00,15.088018900000002,0.0002362,53.2141,225.8447,42.8175,48.8941,0.0026229,0.0004166,0.0,0 STARLINK-3658,1 52107U 22029V   22213.91667824  .00041660  00000-0  26229-2 0  9993,2 52107  53.2141 225.8447 0002362  42.8175  48.8941 15.08801890  1303,6917.996999999999,95.44,541.496,538.2280000000002,0.0
52107.0,STARLINK-3658,PAYLOAD,2022-08-02 14:00:01,15.08830876,0.0002638,53.2144,222.8534,40.0013,74.8544,-0.00014793,-2.642e-05,0.0,0 STARLINK-3658,1 52107U 22029V   22214.58334491 -.00002642  00000-0 -14793-3 0  9991,2 52107  53.2144 222.8534 0002638  40.0013  74.8544 15.08830876  1301,6917.908,95.438,541.5980000000002,537.948,0.0
52107.0,STARLINK-3658,PAYLOAD,2022-08-03 04:00:00,15.08849283,0.0002602,53.2151,220.234,44.3435,0.7768,-0.0019827,-0.00031715,0.0,0 STARLINK-3658,1 52107U 22029V   22215.16667824 -.00031715  00000-0 -19827-2 0  9990,2 52107  53.2151 220.2340 0002602  44.3435   0.7768 15.08849283 22336,6917.852,95.437,541.5169999999998,537.9169999999998,0.0
52107.0,STARLINK-3658,PAYLOAD,2022-08-03 14:00:01,15.08841107,0.0002723,53.215,218.364,41.8988,107.705,-0.00067251,-0.00010977,0.0,0 STARLINK-3658,1 52107U 22029V   22215.58334491 -.00010977  00000-0 -67251-3 0  9999,2 52107  53.2150 218.3640 0002723  41.8988 107.7050 15.08841107  1308,6917.877,95.437,541.626,537.8580000000002,0.0
52107.0,STARLINK-3658,PAYLOAD,2022-08-03 20:00:01,15.08815139,0.0002551,53.2154,217.2404,45.25899999999999,23.0473,0.0021629,0.0003428,0.0,0 STARLINK-3658,1 52107U 22029V   22215.83334491  .00034280  00000-0  21629-2 0  9996,2 52107  53.2154 217.2404 0002551  45.2590  23.0473 15.08815139 22436,6917.956,95.439,541.586,538.057,0.0
52107.0,STARLINK-3658,PAYLOAD,2022-08-03 22:00:01,15.08818247,0.000256,53.2154,216.866,46.2578,115.0056,0.0022429999999999,0.0003556999999999,0.0,0 STARLINK-3658,1 52107U 22029V   22215.91668981  .00035570  00000-0  22430-2 0  9993,2 52107  53.2154 216.8660 0002560  46.2578 115.0056 15.08818247  1307,6917.946999999999,95.439,541.5830000000002,538.0409999999998,0.0
52107.0,STARLINK-3658,PAYLOAD,2022-08-04 14:00:01,15.0885079,0.0002761,53.2153,213.8747,43.8627,140.5115,-0.0012541,-0.00020199,0.0,0 STARLINK-3658,1 52107U 22029V   22216.58334491 -.00020199  00000-0 -12541-2 0  9998,2 52107  53.2153 213.8747 0002761  43.8627 140.5115 15.08850790 22547,6917.847,95.437,541.622,537.802,0.0
52107.0,STARLINK-3658,PAYLOAD,2022-08-04 22:00:00,15.08825589,0.0002598,53.2155,212.3769,48.2259,147.7514,0.0020662,0.00032737,0.0,0 STARLINK-3658,1 52107U 22029V   22216.91667824  .00032737  00000-0  20662-2 0  9996,2 52107  53.2155 212.3769 0002598  48.2259 147.7514 15.08825589  1306,6917.924,95.438,541.587,537.992,0.0
52107.0,STARLINK-3658,PAYLOAD,2022-08-05 06:00:02,15.08848097,0.0002774999999999,53.2154,210.8822,46.2718,161.3639,-0.00098352,-0.00015912,0.0,0 STARLINK-3658,1 52107U 22029V   22217.25002315 -.00015912  00000-0 -98352-3 0  9992,2 52107  53.2154 210.8822 0002775  46.2718 161.3639 15.08848097 22642,6917.856,95.437,541.64,537.8009999999998,0.0
52107.0,STARLINK-3658,PAYLOAD,2022-08-05 14:00:01,15.08859083,0.0002765,53.2151,209.3854,45.9262,173.3022,-0.0017629,-0.00028252,0.0,0 STARLINK-3658,1 52107U 22029V   22217.58335648 -.00028252  00000-0 -17629-2 0  9994,2 52107  53.2151 209.3854 0002765  45.9262 173.3022 15.08859083  1302,6917.821999999999,95.436,541.6,537.774,0.0
52107.0,STARLINK-3658,PAYLOAD,2022-08-05 22:00:00,15.08833787,0.0002623,53.2152,207.8879,50.5516,180.2244,0.0019984,0.00031655,0.0,0 STARLINK-3658,1 52107U 22029V   22217.91667824  .00031655  00000-0  19984-2 0  9990,2 52107  53.2152 207.8879 0002623  50.5516 180.2244 15.08833787 22747,6917.899,95.438,541.5790000000002,537.95,0.0
52107.0,STARLINK-3658,PAYLOAD,2022-08-06 14:00:01,15.0886676,0.0002777,53.2145,204.8964,48.301,205.6772,-0.0021044,-0.00033651,0.0,0 STARLINK-3658,1 52107U 22029V   22218.58334491 -.00033651  00000-0 -21044-2 0  9995,2 52107  53.2145 204.8964 0002777  48.3010 205.6772 15.08866760 22841,6917.799,95.436,541.585,537.743,0.0
52107.0,STARLINK-3658,PAYLOAD,2022-08-06 22:00:00,15.08840776,0.0002676,53.2145,203.3988,53.1175,212.4762,0.0018761,0.00029698,0.0,0 STARLINK-3658,1 52107U 22029V   22218.91667824  .00029698  00000-0  18761-2 0  9997,2 52107  53.2145 203.3988 0002676  53.1175 212.4762 15.08840776  1307,6917.878000000002,95.438,541.594,537.8919999999998,0.0
52107.0,STARLINK-3658,PAYLOAD,2022-08-07 04:00:00,15.08864964,0.0002801,53.2143,202.2779,51.1783,133.1203,-0.0015693,-0.00025196,0.0,0 STARLINK-3658,1 52107U 22029V   22219.16667824 -.00025196  00000-0 -15693-2 0  9997,2 52107  53.2143 202.2779 0002801  51.1783 133.1203 15.08864964 22930,6917.804,95.436,541.607,537.731,0.0
